Newsgroups: comp.sources.x
Path: uunet!think.com!mips!msi!dcmartin
From: e_downey@hwking.cca.cr.rockwell.com (Elwood Downey)
Subject: v16i129: xephem - astronomical ephemeris program., Part18/24
Message-ID: <1992Mar6.135627.2881@msi.com>
Originator: dcmartin@fascet
Sender: dcmartin@msi.com (David C. Martin - Moderator)
Organization: Molecular Simulations, Inc.
References: <csx-16i112-xephem@uunet.UU.NET>
Date: Fri, 6 Mar 1992 13:56:27 GMT
Approved: dcmartin@msi.com

Submitted-by: e_downey@hwking.cca.cr.rockwell.com (Elwood Downey)
Posting-number: Volume 16, Issue 129
Archive-name: xephem/part18

# this is part.18 (part 18 of a multipart archive)
# do not concatenate these parts, unpack them in order with /bin/sh
# file ephem.db continued
#
if test ! -r _shar_seq_.tmp; then
	echo 'Please unpack part 1 first!'
	exit 1
fi
(read Scheck
 if test "$Scheck" != 18; then
	echo Please unpack part "$Scheck" next!
	exit 1
 else
	exit 0
 fi
) < _shar_seq_.tmp || exit 1
if test ! -f _shar_wnt_.tmp; then
	echo 'x - still skipping ephem.db'
else
echo 'x - continuing file ephem.db'
sed 's/^X//' << 'SHAR_EOF' >> 'ephem.db' &&
Onizuka,e,4.06875,140.40778,299.38685,2.1860131,0.30494739,0.0666376,98.99322,11/5/1990,1950.0,13.80,0.25
Onnie,e,2.04012,174.21172,293.38610,2.8671476,0.20301540,0.0164940,37.33239,11/5/1990,1950.0,11.64,0.25
Ontake,e,8.65403,140.37432,147.31311,3.1799068,0.17381309,0.0447227,16.78056,11/5/1990,1950.0,11.30,0.25
Oongaq,e,12.22441,245.01372,169.02698,2.6251161,0.23172949,0.1440400,112.81159,11/5/1990,1950.0,11.79,0.15
Oort,e,1.05999,173.80393,228.95280,3.1774200,0.17401719,0.1572733,335.46859,11/5/1990,1950.0,10.95,0.15
Oosterhoff,e,4.87441,43.71403,283.86346,2.1829540,0.30558863,0.2035164,243.33843,11/5/1990,1950.0,12.60,0.25
Ophelia,e,2.54449,100.12823,57.95728,3.1397958,0.17715441,0.1200731,140.11607,11/5/1990,1950.0,8.39,0.24
Opik,e,26.91026,218.37932,158.71463,2.3038717,0.28184908,0.3618141,266.22046,11/5/1990,1950.0,15.44,0.25
Oppavia,e,9.47402,13.33802,152.98886,2.7455178,0.21665448,0.0772703,28.03747,11/5/1990,1950.0,10.35,0.15
Oppolzer,e,6.05821,137.31816,81.29143,2.1729710,0.30769695,0.1167658,127.48984,11/5/1990,1950.0,12.98,0.25
Ops,e,7.45958,255.10703,63.92835,2.2902178,0.28437334,0.0848534,88.18572,11/5/1990,1950.0,12.98,0.25
Orangia,e,7.18777,280.85122,327.67581,2.2570808,0.29065876,0.2014728,183.76900,11/5/1990,1950.0,13.40,0.25
Orchis,e,4.59131,1.56864,56.96599,2.4203699,0.26174686,0.2559723,232.00407,11/5/1990,1950.0,12.32,0.15
Orelskaya,e,2.30739,12.10767,347.34734,2.1928083,0.30353100,0.1636014,143.88452,11/5/1990,1950.0,13.60,0.25
Oriola,e,7.12370,243.77262,316.26843,3.0117993,0.18856671,0.0391033,213.51203,11/5/1990,1950.0,9.33,0.15
Orlenok,e,2.65843,140.06364,193.39476,2.9021504,0.19935365,0.0880365,14.78372,11/5/1990,1950.0,12.00,0.25
Orlov,e,3.97844,153.21762,144.44276,2.9263414,0.19688679,0.1222778,216.36992,11/5/1990,1950.0,12.32,0.15
Ornamenta,e,24.82454,89.91288,337.24644,3.1194021,0.17889452,0.1495529,292.03205,11/5/1990,1950.0,8.48,0.15
Orpheus,e,2.68755,189.13898,301.56931,1.2093243,0.74112234,0.3226346,197.58723,11/5/1990,1950.0,19.90,0.25
Orthos,e,24.42598,168.85066,145.80283,2.4019634,0.26476129,0.6592127,288.92304,11/5/1990,1950.0,15.10,0.25
Ortrud,e,0.40367,6.10800,69.53722,2.9678945,0.19276642,0.1197137,290.71996,11/5/1990,1950.0,9.54,0.15
Ortutay,e,3.09686,321.71484,51.34031,3.1091987,0.17977586,0.1069659,330.61818,11/5/1990,1950.0,11.00,0.25
Osiris,e,4.95304,352.54613,105.33318,2.4354386,0.25932136,0.0641065,248.89830,11/5/1990,1950.0,13.50,0.25
Osita,e,3.84492,280.52600,314.90841,2.2058110,0.30085111,0.0857345,25.48957,11/5/1990,1950.0,13.47,0.25
Oskar,e,3.94740,69.48190,70.58124,2.4441013,0.25794390,0.1312525,171.04117,11/5/1990,1950.0,12.13,0.15
Ostanina,e,14.27704,180.74361,124.15734,3.1059771,0.18005563,0.2227610,49.06014,11/5/1990,1950.0,10.69,0.15
Ostara,e,3.27562,38.31631,9.05901,2.4121365,0.26308813,0.2313215,63.76574,11/5/1990,1950.0,11.55,0.15
Ostenia,e,10.36502,19.94830,43.63173,3.0187155,0.18791905,0.0943853,86.58506,11/5/1990,1950.0,11.22,0.25
Ostro,e,24.90857,95.84406,32.25981,1.8919872,0.37872745,0.0669393,8.77849,11/5/1990,1950.0,12.32,0.15
Ostrovskij,e,3.99352,66.75808,59.25144,2.7464215,0.21654756,0.1928428,21.12528,11/5/1990,1950.0,12.58,0.15
Otaru,e,3.67264,313.14750,71.31737,2.1732970,0.30762770,0.0292675,210.26399,11/5/1990,1950.0,12.90,0.25
Oterma,e,9.03110,100.37655,297.68164,4.0119525,0.12265080,0.1926728,279.96034,11/5/1990,1950.0,10.04,0.15
Otero,e,6.50164,0.64666,135.55150,2.2723649,0.28773121,0.1474288,351.33881,11/5/1990,1950.0,12.60,0.25
Otila,e,5.80806,94.51040,188.42563,2.1972029,0.30262083,0.1706828,302.01761,11/5/1990,1950.0,12.60,0.25
Ottegebe,e,7.53892,174.30085,194.65057,2.8017302,0.21016704,0.1939576,160.56520,11/5/1990,1950.0,9.33,0.15
Otthild,e,15.35235,2.01340,341.23750,2.5315717,0.24469141,0.1145890,129.96456,11/5/1990,1950.0,10.28,0.15
Ottilia,e,5.95332,35.99323,277.63518,3.3393995,0.16151078,0.0497335,114.87225,11/5/1990,1950.0,9.35,0.15
Otto Schmidt,e,10.77794,327.44713,52.07275,2.4359013,0.25924749,0.0045871,34.47527,11/5/1990,1950.0,11.50,0.25
Otto Struve,e,4.95282,178.46159,253.41140,2.2356610,0.29484593,0.1744134,132.73705,11/5/1990,1950.0,13.80,0.25
Oulu,e,6.51740,9.87122,243.15741,3.9343039,0.12629967,0.1562072,177.64622,11/5/1990,1950.0,9.59,0.15
Ounas,e,13.67317,216.19554,129.32445,2.5741738,0.23864222,0.2365093,250.20363,11/5/1990,1950.0,12.40,0.25
Outeniqua,e,4.49271,359.12432,266.16010,2.2476396,0.29249205,0.1655697,68.12603,11/5/1990,1950.0,11.87,0.25
Ovidius,e,3.06879,102.53032,174.06476,3.1651815,0.17502744,0.1341069,210.94376,11/5/1990,1950.0,12.90,0.25
Owa,e,4.79452,279.51879,130.95531,2.2501683,0.29199913,0.1740344,332.78607,11/5/1990,1950.0,13.02,0.25
Owensby,e,6.77377,324.22132,250.88303,2.2397579,0.29403732,0.0434384,22.30460,11/5/1990,1950.0,13.60,0.25
Paavo Nurmi,e,2.00181,295.57257,78.94881,2.4681555,0.25418230,0.1886949,70.77197,11/5/1990,1950.0,13.25,0.15
Padua,e,5.95012,64.49894,292.93997,2.7478635,0.21637712,0.0715989,322.06896,11/5/1990,1950.0,8.97,0.15
Paeonia,e,2.49232,91.25605,299.94144,3.1244714,0.17845932,0.2178539,277.68256,11/5/1990,1950.0,12.07,0.15
Pafuri,e,9.48725,75.92486,193.08099,3.1298029,0.17800352,0.1400962,331.70642,11/5/1990,1950.0,9.90,0.15
Paganini,e,3.55598,164.83617,340.49241,2.2385521,0.29427492,0.1183015,88.87050,11/5/1990,1950.0,13.50,0.25
Paijanne,e,6.16898,266.05526,31.41190,3.1493959,0.17634502,0.2008844,113.58462,11/5/1990,1950.0,11.70,0.25
Painleva,e,8.66071,36.10524,260.03007,2.7862919,0.21191620,0.1899314,276.36237,11/5/1990,1950.0,10.40,0.15
Pakhmutova,e,13.19136,55.49725,76.27124,3.0887682,0.18156248,0.1130312,64.59235,11/5/1990,1950.0,10.70,0.25
Pala,e,19.59459,352.56667,18.10215,3.2435088,0.16872579,0.4088300,334.06493,11/5/1990,1950.0,14.50,0.25
Palala,e,3.75887,116.74000,110.17403,2.3944023,0.26601639,0.1272070,106.09280,11/5/1990,1950.0,13.00,0.25
Palamedes,e,13.87603,326.85339,94.71208,5.1784809,0.08363740,0.0739937,99.81605,11/5/1990,1950.0,9.60,0.25
Palatia,e,8.13847,126.88061,296.03611,2.7891506,0.21159048,0.3046349,170.12176,11/5/1990,1950.0,9.38,0.32
Pales,e,3.18367,285.55980,111.14116,3.0800627,0.18233277,0.2365375,151.85147,11/5/1990,1950.0,7.91,0.39
Palisana,e,25.25970,255.34074,48.08306,2.4589802,0.25560628,0.2112588,188.29163,11/5/1990,1950.0,8.82,0.15
Pallas,e,34.81112,172.61312,309.76641,2.7713324,0.21363438,0.2350383,359.31233,11/5/1990,1950.0,4.13,0.15
Palma,e,23.86615,326.81966,116.80890,3.1428203,0.17689875,0.2643469,52.72579,11/5/1990,1950.0,7.30,0.25
Palomaa,e,16.53659,116.60526,86.89841,2.7883415,0.21168258,0.0787376,324.99904,11/5/1990,1950.0,11.70,0.25
Paloque,e,7.53931,297.58427,301.32933,2.3322353,0.27672317,0.0811692,54.23639,11/5/1990,1950.0,13.20,0.25
Pamela,e,13.23918,245.54268,58.58183,3.1035692,0.18026522,0.0335306,192.82964,11/5/1990,1950.0,9.80,0.15
Pamina,e,6.79506,274.43950,95.56501,2.7393369,0.21738816,0.2118062,334.61979,11/5/1990,1950.0,9.85,0.15
Panacea,e,10.25984,318.03334,14.49274,3.0446529,0.18552284,0.0880819,335.69162,11/5/1990,1950.0,11.57,0.15
Pandarus,e,1.85932,179.20749,36.10045,5.1752119,0.08371666,0.0669154,196.39698,11/5/1990,1950.0,9.05,0.15
Pandora,e,7.19420,10.15726,3.16015,2.7599713,0.21495484,0.1440861,287.76097,11/5/1990,1950.0,7.68,0.35
Pannonia,e,17.73932,302.80898,314.43091,3.1547808,0.17589370,0.1372680,14.51662,11/5/1990,1950.0,11.00,0.25
Panopaea,e,11.57274,47.54403,254.86112,2.6170856,0.23279689,0.1829021,167.01043,11/5/1990,1950.0,7.99,0.15
Paola,e,1.55436,336.49375,88.81223,2.4687444,0.25409136,0.1517404,126.52868,11/5/1990,1950.0,12.53,0.25
Paolicchi,e,18.10990,52.97307,25.62248,2.8749840,0.20218592,0.0311429,349.98867,11/5/1990,1950.0,10.90,0.25
Papagena,e,14.93693,83.85017,313.40383,2.8913957,0.20046695,0.2289067,319.32492,11/5/1990,1950.0,6.61,0.29
Papanov,e,2.91863,34.74710,13.25084,2.2258306,0.29680137,0.1202641,93.68176,11/5/1990,1950.0,13.49,0.25
Paracelsus,e,10.86152,20.15276,353.42099,3.2013946,0.17206608,0.0905127,34.07030,11/5/1990,1950.0,11.46,0.15
Paradise,e,31.01884,335.58171,165.11255,2.3978333,0.26544563,0.1709129,249.59262,11/5/1990,1950.0,11.50,0.25
Parana,e,0.89579,253.92723,10.93336,2.1764223,0.30696533,0.1604467,214.64472,11/5/1990,1950.0,14.30,0.25
Parchomenko,e,4.39531,235.61316,173.26534,2.2435541,0.29329136,0.1345269,205.75657,11/5/1990,1950.0,12.60,0.25
Parenago,e,1.19439,204.08508,147.61250,2.3440998,0.27462491,0.2544220,126.87355,11/5/1990,1950.0,13.50,0.25
Pariana,e,11.70805,85.33213,84.69920,2.6147822,0.23310458,0.1620303,335.98085,11/5/1990,1950.0,9.03,0.25
Paris,e,27.87460,135.29747,148.42304,5.2029172,0.08304887,0.1249714,137.29867,11/5/1990,1950.0,8.40,0.25
Parsifal,e,3.59249,332.19159,6.31581,2.6410268,0.22963859,0.0086111,28.03056,11/5/1990,1950.0,12.80,0.25
Part,e,4.42232,24.28810,303.10018,2.1763376,0.30698325,0.1177206,29.97513,11/5/1990,1950.0,13.20,0.25
